[{"OBJECT_NAME":"OBJECT B","OBJECT_ID":"2023-189B","EPOCH":"2026-03-09T23:19:13.152000","MEAN_MOTION":15.72871024,"ECCENTRICITY":0.00049112,"INCLINATION":97.414,"RA_OF_ASC_NODE":101.6861,"ARG_OF_PERICENTER":172.6117,"MEAN_ANOMALY":187.522,"EPHEMERIS_TYPE":0,"CLASSIFICATION_TYPE":"U","NORAD_CAT_ID":58503,"ELEMENT_SET_NO":999,"REV_AT_EPOCH":12706,"BSTAR":0.00074828171,"MEAN_MOTION_DOT":0.00102221,"MEAN_MOTION_DDOT":0},{"OBJECT_NAME":"STARLINK-11391 [DTC]","OBJECT_ID":"2025-024L","EPOCH":"2026-03-09T14:18:46.410336","MEAN_MOTION":15.70863794,"ECCENTRICITY":0.0002739,"INCLINATION":42.9984,"RA_OF_ASC_NODE":181.8576,"ARG_OF_PERICENTER":314.5585,"MEAN_ANOMALY":45.5059,"EPHEMERIS_TYPE":0,"CLASSIFICATION_TYPE":"U","NORAD_CAT_ID":62889,"ELEMENT_SET_NO":999,"REV_AT_EPOCH":6345,"BSTAR":0.0019589,"MEAN_MOTION_DOT":0.00259175,"MEAN_MOTION_DDOT":0}]
